NORAD_CAT_ID,OBJECT_NAME,OBJECT_TYPE,EPOCH,MEAN_MOTION,ECCENTRICITY,INCLINATION,RA_OF_ASC_NODE,ARG_OF_PERICENTER,MEAN_ANOMALY,BSTAR,MEAN_MOTION_DOT,MEAN_MOTION_DDOT,TLE_LINE0,TLE_LINE1,TLE_LINE2,SEMIMAJOR_AXIS,PERIOD,APOGEE,PERIGEE,DECAYED
53859.0,STARLINK-4790,PAYLOAD,2022-09-23 16:00:00,15.88389546,0.0031701999999999,53.2174,236.2103,55.29,39.6528,-0.0041318,-0.01219613,0.00042401,0 STARLINK-4790,1 53859U 22114AT  22266.66667824 -.01219613  42401-3 -41318-2 0  9991,2 53859  53.2174 236.2103 0031702  55.2900  39.6528 15.88389546  1309,6684.935,90.658,327.992,285.607,0.0
53859.0,STARLINK-4790,PAYLOAD,2022-09-24 06:00:00,15.86816051,0.0025064,53.2171,233.2625,56.5988,134.4725,-0.0043062,-0.01156195,0.00037925,0 STARLINK-4790,1 53859U 22114AT  22267.25001157 -.01156195  37925-3 -43062-2 0  9996,2 53859  53.2171 233.2625 0025064  56.5988 134.4725 15.86816051  1392,6689.353,90.748,327.9840000000001,294.452,0.0
53859.0,STARLINK-4790,PAYLOAD,2022-09-24 14:00:01,15.86032827,0.0021239,53.2168,231.5792,55.8026,240.1925,-0.005029,-0.01288035,0.00045833,0 STARLINK-4790,1 53859U 22114AT  22267.58335648 -.01288035  45833-3 -50290-2 0  9994,2 53859  53.2168 231.5792 0021239  55.8026 240.1925 15.86032827  1443,6691.555,90.793,327.632,299.208,0.0
53859.0,STARLINK-4790,PAYLOAD,2022-09-24 22:00:00,15.8518674,0.0017776,53.2176,229.8989,53.8312,345.9436,-0.0053588,-0.01159761,0.0,0 STARLINK-4790,1 53859U 22114AT  22267.91667824 -.01159761  00000-0 -53588-2 0  9995,2 53859  53.2176 229.8989 0017776  53.8312 345.9436 15.85186740  1306,6693.936,90.841,327.7,303.902,0.0
53859.0,STARLINK-4790,PAYLOAD,2022-09-25 14:00:01,15.83485372,0.0010842,53.2174,226.5458,46.7003,197.6546,-0.0061879,-0.01234974,0.0,0 STARLINK-4790,1 53859U 22114AT  22268.58334491 -.01234974  00000-0 -61879-2 0  9992,2 53859  53.2174 226.5458 0010842  46.7003 197.6546 15.83485372  1309,6698.73,90.939,327.858,313.332,0.0
53859.0,STARLINK-4790,PAYLOAD,2022-09-25 22:00:01,15.82601437,0.0006835,53.2175,224.8714,40.8423,304.3158,-0.0063091,-0.01205343,0.0,0 STARLINK-4790,1 53859U 22114AT  22268.91668981 -.01205343  00000-0 -63091-2 0  9999,2 53859  53.2175 224.8714 0006835  40.8423 304.3158 15.82601437  1301,6701.224,90.989,327.6690000000001,318.509,0.0
53859.0,STARLINK-4790,PAYLOAD,2022-09-26 10:00:00,15.81311387,0.0003614,53.217,222.3665,14.0484,300.1804,-0.0068286,-0.01222251,0.0,0 STARLINK-4790,1 53859U 22114AT  22269.41667824 -.01222251  00000-0 -68286-2 0  9998,2 53859  53.2170 222.3665 0003614  14.0484 300.1804 15.81311387  1736,6704.868,91.064,329.156,324.31,0.0
53859.0,STARLINK-4790,PAYLOAD,2022-09-26 14:00:01,15.80864673,0.0002967,53.2174,221.531,357.4534,185.9732,-0.0068447,-0.01201845,0.0,0 STARLINK-4790,1 53859U 22114AT  22269.58334491 -.01201845  00000-0 -68447-2 0  9992,2 53859  53.2174 221.5310 0002967 357.4534 185.9732 15.80864673  1300,6706.130999999999,91.089,329.986,326.006,0.0
53859.0,STARLINK-4790,PAYLOAD,2022-09-26 22:00:00,15.800105800000004,0.0003998999999999,53.2177,219.8634,291.7383,349.2856,-0.007264,-0.012239,0.0,0 STARLINK-4790,1 53859U 22114AT  22269.91667824 -.01223900  00000-0 -72640-2 0  9994,2 53859  53.2177 219.8634 0003999 291.7383 349.2856 15.80010580  1302,6708.5480000000025,91.139,333.095,327.73,0.0
53859.0,STARLINK-4790,PAYLOAD,2022-09-27 06:00:00,15.79128074,0.0005901,53.2174,218.1993,277.6642,99.9238,-0.0073905,-0.01200279,0.0,0 STARLINK-4790,1 53859U 22114AT  22270.25001157 -.01200279  00000-0 -73905-2 0  9993,2 53859  53.2174 218.1993 0005901 277.6642  99.9238 15.79128074  1865,6711.047,91.19,336.872,328.952,0.0
53859.0,STARLINK-4790,PAYLOAD,2022-09-27 14:00:01,15.78252793,0.0006742,53.2172,216.5348,272.1563,200.954,-0.0076449,-0.01194504,0.0,0 STARLINK-4790,1 53859U 22114AT  22270.58334491 -.01194504  00000-0 -76449-2 0  9998,2 53859  53.2172 216.5348 0006742 272.1563 200.9540 15.78252793  1309,6713.528,91.24,339.9190000000001,330.867,0.0
53859.0,STARLINK-4790,PAYLOAD,2022-09-27 22:00:01,15.77427102,0.0004976,53.2169,214.873,268.1816,299.4426,-0.0082874,-0.01239734,0.0,0 STARLINK-4790,1 53859U 22114AT  22270.91668981 -.01239734  00000-0 -82874-2 0  9993,2 53859  53.2169 214.8730 0004976 268.1816 299.4426 15.77427102  1970,6715.87,91.288,341.077,334.394,0.0
53859.0,STARLINK-4790,PAYLOAD,2022-09-28 14:00:01,15.75726692,0.0001105999999999,53.2174,211.5587,314.328,79.0325,-0.0093453999999999,-0.0131002999999999,0.0,0 STARLINK-4790,1 53859U 22114AT  22271.58334491 -.01310030  00000-0 -93454-2 0  9998,2 53859  53.2174 211.5587 0001106 314.3280  79.0325 15.75726692  1302,6720.701,91.386,343.309,341.8230000000001,0.0
53859.0,STARLINK-4790,PAYLOAD,2022-09-28 22:00:00,15.74886671,0.000123,53.2172,209.9037,48.6623,76.0279,-0.0099969,-0.01346091,0.0,0 STARLINK-4790,1 53859U 22114AT  22271.91667824 -.01346091  00000-0 -99969-2 0  9997,2 53859  53.2172 209.9037 0001230  48.6623  76.0279 15.74886671  2137,6723.090999999999,91.435,345.783,344.129,0.0
53859.0,STARLINK-4790,PAYLOAD,2022-09-29 06:00:00,15.73771197,0.0001181,53.2174,208.2536,59.506,155.5545,-0.0049565,-0.00660229,0.0,0 STARLINK-4790,1 53859U 22114AT  22272.25001157 -.00660229  00000-0 -49565-2 0  9994,2 53859  53.2174 208.2536 0001181  59.5060 155.5545 15.73771197  2185,6726.267,91.5,348.927,347.338,0.0
53859.0,STARLINK-4790,PAYLOAD,2022-09-29 14:00:01,15.73201514,0.0001049,53.2175,206.6021,70.9315,233.4672,2.2145e-05,2.489e-05,0.0,0 STARLINK-4790,1 53859U 22114AT  22272.58334491  .00002489  00000-0  22145-4 0  9993,2 53859  53.2175 206.6021 0001049  70.9315 233.4672 15.73201514  1301,6727.891,91.533,350.462,349.05,0.0
53859.0,STARLINK-4790,PAYLOAD,2022-09-29 22:00:00,15.73272878,0.0001161,53.2149,204.9477,80.9597,312.3963,-0.00052125,-0.00073365,0.0,0 STARLINK-4790,1 53859U 22114AT  22272.91667824 -.00073365  00000-0 -52125-3 0  9992,2 53859  53.2149 204.9477 0001161  80.9597 312.3963 15.73272878  1307,6727.687,91.529,350.333,348.771,0.0
53859.0,STARLINK-4790,PAYLOAD,2022-09-30 06:00:02,15.73206936,0.0001115,53.2148,203.2998,70.0985,52.3221,0.00014691,0.00020053,0.0,0 STARLINK-4790,1 53859U 22114AT  22273.25002315  .00020053  00000-0  14691-3 0  9998,2 53859  53.2148 203.2998 0001115  70.0985  52.3221 15.73206936  2341,6727.875,91.533,350.491,348.99,0.0
53859.0,STARLINK-4790,PAYLOAD,2022-09-30 14:00:01,15.73195655,8.109999999999999e-05,53.2151,201.6482,77.6927,133.6139,-0.00012876,-0.00018645,0.0,0 STARLINK-4790,1 53859U 22114AT  22273.58334491 -.00018645  00000-0 -12876-3 0  9996,2 53859  53.2151 201.6482 0000811  77.6927 133.6139 15.73195655  1307,6727.908,91.533,350.3180000000001,349.227,0.0
53859.0,STARLINK-4790,PAYLOAD,2022-09-30 22:00:00,15.73205695,8.13e-05,53.215,199.999,79.3673,220.8546,0.00036652,0.00051144,0.0,0 STARLINK-4790,1 53859U 22114AT  22273.91667824  .00051144  00000-0  36652-3 0  9999,2 53859  53.2150 199.9990 0000813  79.3673 220.8546 15.73205695  2441,6727.879,91.533,350.291,349.19699999999995,0.0
53859.0,STARLINK-4790,PAYLOAD,2022-10-01 14:00:01,15.73175025,0.0001088999999999,53.2142,196.6995,86.9953,31.162,0.0001606,0.00021954,0.0,0 STARLINK-4790,1 53859U 22114AT  22274.58334491  .00021954  00000-0  16060-3 0  9991,2 53859  53.2142 196.6995 0001089  86.9953  31.1620 15.73175025  1305,6727.965999999999,91.535,350.564,349.099,0.0
53859.0,STARLINK-4790,PAYLOAD,2022-10-01 22:00:00,15.73203943,0.0001105999999999,53.2144,195.0505,88.3002,118.7675,-0.00044502,-0.00062621,0.0,0 STARLINK-4790,1 53859U 22114AT  22274.91667824 -.00062621  00000-0 -44502-3 0  9997,2 53859  53.2144 195.0505 0001106  88.3002 118.7675 15.73203943  1301,6727.884,91.533,350.49300000000005,349.005,0.0
53859.0,STARLINK-4790,PAYLOAD,2022-10-02 06:00:00,15.73145392,0.0001002999999999,53.2142,193.4024,76.6063,219.3788,1.6869e-05,1.743e-05,0.0,0 STARLINK-4790,1 53859U 22114AT  22275.25001157  .00001743  00000-0  16869-4 0  9998,2 53859  53.2142 193.4024 0001003  76.6063 219.3788 15.73145392  2655,6728.051,91.536,350.591,349.241,0.0
53859.0,STARLINK-4790,PAYLOAD,2022-10-02 14:00:01,15.73108509,8.85e-05,53.2146,191.7508,92.8899,291.9659,0.00079481,0.00111983,0.0,0 STARLINK-4790,1 53859U 22114AT  22275.58334491  .00111983  00000-0  79481-3 0  9990,2 53859  53.2146 191.7508 0000885  92.8899 291.9659 15.73108509  1304,6728.156,91.539,350.616,349.426,0.0
53859.0,STARLINK-4790,PAYLOAD,2022-10-02 22:00:00,15.73202088,9.6e-05,53.2146,190.1021,89.2752,24.438,0.00035769,0.00049882,0.0,0 STARLINK-4790,1 53859U 22114AT  22275.91667824  .00049882  00000-0  35769-3 0  9995,2 53859  53.2146 190.1021 0000960  89.2752  24.4380 15.73202088  2767,6727.889,91.533,350.4,349.108,0.0
53859.0,STARLINK-4790,PAYLOAD,2022-10-03 14:00:01,15.73279185,9.19e-05,53.2142,186.802,100.7169,190.9844,-0.00017213,-0.00024787,0.0,0 STARLINK-4790,1 53859U 22114AT  22276.58334491 -.00024787  00000-0 -17213-3 0  9993,2 53859  53.2142 186.8020 0000919 100.7169 190.9844 15.73279185  1304,6727.669,91.529,350.153,348.916,0.0
53859.0,STARLINK-4790,PAYLOAD,2022-10-03 22:00:00,15.73282155,9.06e-05,53.2144,185.1534,96.2927,284.3838,-0.00045783,-0.00064604,0.0,0 STARLINK-4790,1 53859U 22114AT  22276.91667824 -.00064604  00000-0 -45783-3 0  9994,2 53859  53.2144 185.1534 0000906  96.2927 284.3838 15.73282155  2915,6727.661,91.528,350.135,348.916,0.0
53859.0,STARLINK-4790,PAYLOAD,2022-10-04 14:00:01,15.73182358,0.0001100999999999,53.2148,181.853,101.6861,96.95,-4.103600000000001e-05,-6.37e-05,0.0,0 STARLINK-4790,1 53859U 22114AT  22277.58334491 -.00006370  00000-0 -41036-4 0  9993,2 53859  53.2148 181.8530 0001101 101.6861  96.9500 15.73182358  1303,6727.945,91.534,350.551,349.07,0.0
53859.0,STARLINK-4790,PAYLOAD,2022-10-04 22:00:00,15.73178843,0.0001214,53.215,180.2048,96.8075,190.7061,0.00026367,0.00036512,0.0,0 STARLINK-4790,1 53859U 22114AT  22277.91667824  .00036512  00000-0  26367-3 0  9997,2 53859  53.2150 180.2048 0001214  96.8075 190.7061 15.73178843  3075,6727.955,91.534,350.63699999999994,349.004,0.0
